STARLINK-36565          
1 67544U 26014N   26162.59429372  .00007570  00000+0  23655-3 0  9999
2 67544  97.2870  49.3789 0001525  90.8544 269.2873 15.33449278 23170
STARLINK-36583          
1 67545U 26014P   26162.63236042  .00023603  00000+0  73085-3 0  9992
2 67545  97.2850  49.4779 0003064 116.8951 243.2605 15.33454172 23185
STARLINK-36580          
1 67546U 26014Q   26162.60245258  .00030517  00000+0  94360-3 0  9990
2 67546  97.2863  49.3682 0001929  88.6185 271.5278 15.33449909 23176
STARLINK-36584          
1 67547U 26014R   26162.62692158  .00023661  00000+0  73286-3 0  9994
2 67547  97.2870  49.4886 0001596  80.9225 279.2199 15.33448138 23183
STARLINK-36586          
1 67548U 26014S   26162.62420270  .00021025  00000+0  65164-3 0  9997
2 67548  97.2864  49.4929 0002388 117.9676 242.1809 15.33449375 23187
STARLINK-36564          
1 67549U 26014T   26162.60517069  .00031225  00000+0  96539-3 0  9992
2 67549  97.2878  49.3657 0001693 102.7640 257.3792 15.33449266 23112
STARLINK-36563          
1 67550U 26014U   26162.61876531  .00027264  00000+0  84363-3 0  9997
2 67550  97.2866  49.4993 0002022  96.5399 263.6074 15.33449231 23185
STARLINK-36566          
1 67551U 26014V   26162.61058983  .00013170  00000+0  40941-3 0  9996
2 67551  97.2889  49.3608 0001520  81.2097 278.9318 15.33454931 23162
STARLINK-36567          
1 67552U 26014W   26162.62964079  .00016394  00000+0  50903-3 0  9990
2 67552  97.2872  49.4810 0001613 106.6406 253.5014 15.33443336 23170
STARLINK-36569          
1 67553U 26014X   26162.57254396  .00029372  00000+0  90848-3 0  9991
2 67553  97.2867  49.4090 0002097 104.2644 255.8832 15.33448416 23166
STARLINK-36395          
1 67554U 26014Y   26162.58335648 -.02311620  00000+0 -24189-1 0  9990
2 67554  97.2849  52.1168 0001635 109.5052 189.5742 15.68077731  5992
STARLINK-36559          
1 67555U 26014Z   26162.58070439  .00019691  00000+0  61043-3 0  9996
2 67555  97.2866  49.3975 0001920  89.6496 270.4967 15.33456712 23163
MR-2                    
1 67556U 26015A   26162.58154419  .00000047  00000+0  52122-4 0  9993
2 67556  89.0001 269.1050 0005317  96.0064 264.1695 13.52693846 18956
MR-1                    
1 67557U 26015B   26162.58414894  .00000053  00000+0  61557-4 0  9999
2 67557  89.0001 269.1050 0005379  95.2133 264.9633 13.52668242 18955
STARLINK-36426          
1 67560U 26014AA  26162.61332569  .00022813  00000+0  70647-3 0  9991
2 67560  97.2869  49.5072 0001877 101.6714 258.4740 15.33460177 23177
STARLINK-36621          
1 67561U 26016A   26162.60482914  .00017835  00000+0  55336-3 0  9999
2 67561  97.2858 222.6356 0000442 240.7859 119.3339 15.33452242 21257
STARLINK-36398          
1 67562U 26016B   26162.61297405  .00017483  00000+0  54235-3 0  9996
2 67562  97.2820 222.7755 0000624 305.3025  54.8159 15.33461320 21267
STARLINK-36403          
1 67563U 26016C   26162.17523357  .00018159  00000+0  56343-3 0  9999
2 67563  97.2850 222.2992 0001069 116.5300 243.6053 15.33445441 21190
STARLINK-36593          
1 67564U 26016D   26162.11541825  .00011076  00000+0  34492-3 0  9996
2 67564  97.2839 222.2300 0000944  86.7528 273.3823 15.33443682 21181
STARLINK-35725          
1 67565U 26016E   26162.13444841  .00017561  00000+0  54486-3 0  9999
2 67565  97.2852 222.2058 0000398 108.2070 251.9216 15.33454488 21186
STARLINK-36394          
1 67566U 26016F   26162.13714904 -.00003914  00000+0 -11897-3 0  9998
2 67566  97.2856 222.2032 0001143 249.5490 110.5630 15.33447285 21184
STARLINK-36352          
1 67567U 26016G   26162.16979577  .00022903  00000+0  70955-3 0  9998
2 67567  97.2850 222.3110 0000723 103.4918 256.6405 15.33447487 21190
STARLINK-36435          
1 67568U 26016H   26162.61570339  .00022564  00000+0  69872-3 0  9991
2 67568  97.2852 222.7762 0001191  88.7260 271.4119 15.33464382 21263
STARLINK-36575          
1 67569U 26016J   26162.60630897  .00029446  00000+0  91066-3 0  9993
2 67569  97.2860 223.6987 0000037 256.4858 103.6381 15.33452684 21323
STARLINK-36562          
1 67570U 26016K   26162.62385825  .00024314  00000+0  75274-3 0  9997
2 67570  97.2873 222.7631 0001314 231.4733 128.6392 15.33457149 21262
STARLINK-36578          
1 67571U 26016L   26162.13988475  .00009788  00000+0  30509-3 0  9994
2 67571  97.2855 222.1973 0000477 223.5685 136.5520 15.33446983 21189
STARLINK-36350          
1 67572U 26016M   26162.12901288  .00031394  00000+0  97043-3 0  9995
2 67572  97.2847 222.2141 0000936  78.0248 282.1100 15.33454966 21189
STARLINK-36588          
1 67573U 26016N   26162.58851803  .00019454  00000+0  60324-3 0  9998
2 67573  97.2851 222.6585 0000230 310.0199  50.1024 15.33451015 21250
STARLINK-36594          
1 67574U 26016P   26162.62114402  .00015762  00000+0  48941-3 0  9990
2 67574  97.2857 222.7674 0000783 350.4782   9.6446 15.33453543 21262
STARLINK-36400          
1 67575U 26016Q   26162.44441095  .00011970  00000+0  37246-3 0  9995
2 67575  97.2864 222.5502 0000886 108.1697 251.9642 15.33449456 21231
