OBJECT_NAME,OBJECT_ID,EPOCH,MEAN_MOTION,ECCENTRICITY,INCLINATION,RA_OF_ASC_NODE,ARG_OF_PERICENTER,MEAN_ANOMALY,EPHEMERIS_TYPE,CLASSIFICATION_TYPE,NORAD_CAT_ID,ELEMENT_SET_NO,REV_AT_EPOCH,BSTAR,MEAN_MOTION_DOT,MEAN_MOTION_DDOT
STARLINK-36565,2026-014N,2026-06-11T14:15:46.977408,15.33449278,.00015257,97.2870,49.3789,90.8544,269.2873,0,U,67544,999,2317,.23655261E-3,.757E-4,0
STARLINK-36583,2026-014P,2026-06-11T15:10:35.940288,15.33454172,.00030649,97.2850,49.4779,116.8951,243.2605,0,U,67545,999,2318,.730851E-3,.23603E-3,0
STARLINK-36580,2026-014Q,2026-06-11T14:27:31.902912,15.33449909,.00019295,97.2863,49.3682,88.6185,271.5278,0,U,67546,999,2317,.94360048E-3,.30517E-3,0
STARLINK-36584,2026-014R,2026-06-11T15:02:46.024512,15.33448138,.00015968,97.2870,49.4886,80.9225,279.2199,0,U,67547,999,2318,.73285957E-3,.23661E-3,0
STARLINK-36586,2026-014S,2026-06-11T14:58:51.113280,15.33449375,.00023889,97.2864,49.4929,117.9676,242.1809,0,U,67548,999,2318,.65164422E-3,.21025E-3,0
STARLINK-36564,2026-014T,2026-06-11T14:31:26.747616,15.33449266,.00016939,97.2878,49.3657,102.7640,257.3792,0,U,67549,999,2311,.96538699E-3,.31225E-3,0
STARLINK-36563,2026-014U,2026-06-11T14:51:01.322784,15.33449231,.00020227,97.2866,49.4993,96.5399,263.6074,0,U,67550,999,2318,.84363307E-3,.27264E-3,0
STARLINK-36566,2026-014V,2026-06-11T14:39:14.961312,15.33454931,.00015203,97.2889,49.3608,81.2097,278.9318,0,U,67551,999,2316,.40941156E-3,.1317E-3,0
STARLINK-36567,2026-014W,2026-06-11T15:06:40.964256,15.33443336,.00016138,97.2872,49.4810,106.6406,253.5014,0,U,67552,999,2317,.50903436E-3,.16394E-3,0
STARLINK-36569,2026-014X,2026-06-11T13:44:27.798144,15.33448416,.00020977,97.2867,49.4090,104.2644,255.8832,0,U,67553,999,2316,.90847588E-3,.29372E-3,0
STARLINK-36395,2026-014Y,2026-06-11T14:00:01.999872,15.68077731,.0001635,97.2849,52.1168,109.5052,189.5742,0,U,67554,999,599,-.24188642E-1,-.231162E-1,0
STARLINK-36559,2026-014Z,2026-06-11T13:56:12.859296,15.33456712,.00019203,97.2866,49.3975,89.6496,270.4967,0,U,67555,999,2316,.6104263E-3,.19691E-3,0
MR-2,2026-015A,2026-06-11T13:57:25.418016,13.52693846,.00053176,89.0001,269.1050,96.0064,264.1695,0,U,67556,999,1895,.52122062E-4,.47E-6,0
MR-1,2026-015B,2026-06-11T14:01:10.468416,13.52668242,.0005379,89.0001,269.1050,95.2133,264.9633,0,U,67557,999,1895,.61557047E-4,.53E-6,0
STARLINK-36426,2026-014AA,2026-06-11T14:43:11.339616,15.33460177,.00018777,97.2869,49.5072,101.6714,258.4740,0,U,67560,999,2317,.70647392E-3,.22813E-3,0
STARLINK-36621,2026-016A,2026-06-11T14:30:57.237696,15.33452242,.0000442,97.2858,222.6356,240.7859,119.3339,0,U,67561,999,2125,.55335914E-3,.17835E-3,0
STARLINK-36398,2026-016B,2026-06-11T14:42:40.957920,15.33461320,.00006246,97.2820,222.7755,305.3025,54.8159,0,U,67562,999,2126,.54235073E-3,.17483E-3,0
STARLINK-36403,2026-016C,2026-06-11T04:12:20.180448,15.33445441,.00010693,97.2850,222.2992,116.5300,243.6053,0,U,67563,999,2119,.56342969E-3,.18159E-3,0
STARLINK-36593,2026-016D,2026-06-11T02:46:12.136800,15.33443682,.00009445,97.2839,222.2300,86.7528,273.3823,0,U,67564,999,2118,.34492237E-3,.11076E-3,0
STARLINK-35725,2026-016E,2026-06-11T03:13:36.342624,15.33454488,.00003989,97.2852,222.2058,108.2070,251.9216,0,U,67565,999,2118,.54486191E-3,.17561E-3,0
STARLINK-36394,2026-016F,2026-06-11T03:17:29.677056,15.33447285,.00011433,97.2856,222.2032,249.5490,110.5630,0,U,67566,999,2118,-.1189696E-3,-.3914E-4,0
STARLINK-36352,2026-016G,2026-06-11T04:04:30.354528,15.33447487,.00007234,97.2850,222.3110,103.4918,256.6405,0,U,67567,999,2119,.70955265E-3,.22903E-3,0
STARLINK-36435,2026-016H,2026-06-11T14:46:36.772896,15.33464382,.00011912,97.2852,222.7762,88.7260,271.4119,0,U,67568,999,2126,.69872241E-3,.22564E-3,0
STARLINK-36575,2026-016J,2026-06-11T14:33:05.095008,15.33452684,.00000372,97.2860,223.6987,256.4858,103.6381,0,U,67569,999,2132,.91065764E-3,.29446E-3,0
STARLINK-36562,2026-016K,2026-06-11T14:58:21.352800,15.33457149,.00013143,97.2873,222.7631,231.4733,128.6392,0,U,67570,999,2126,.75273902E-3,.24314E-3,0
STARLINK-36578,2026-016L,2026-06-11T03:21:26.042400,15.33446983,.00004776,97.2855,222.1973,223.5685,136.5520,0,U,67571,999,2118,.30509497E-3,.9788E-4,0
STARLINK-36350,2026-016M,2026-06-11T03:05:46.712832,15.33454966,.0000936,97.2847,222.2141,78.0248,282.1100,0,U,67572,999,2118,.97043471E-3,.31394E-3,0
STARLINK-36588,2026-016N,2026-06-11T14:07:27.957792,15.33451015,.00002309,97.2851,222.6585,310.0199,50.1024,0,U,67573,999,2125,.60324232E-3,.19454E-3,0
STARLINK-36594,2026-016P,2026-06-11T14:54:26.843328,15.33453543,.00007839,97.2857,222.7674,350.4782,9.6446,0,U,67574,999,2126,.48941422E-3,.15762E-3,0
STARLINK-36400,2026-016Q,2026-06-11T10:39:57.106080,15.33449456,.00008869,97.2864,222.5502,108.1697,251.9642,0,U,67575,999,2123,.37246412E-3,.1197E-3,0
